STARLINK-30596          
1 58110U 23161P   26068.54923750  .00001569  00000+0  65109-4 0  9990
2 58110  53.1581 165.9283 0000953  81.4219 278.6890 15.30185320134406
TEVEL2-5                
1 63214U 25052E   26068.96660006  .00021339  00000+0  71765-3 0  9991
2 63214  97.4013 325.3677 0004700  95.3936 264.7842 15.30817434 54919
